{
  "norad_id": 51881,
  "name": "STARLINK-3504",
  "history": [
    {
      "epoch": "2026-03-28T18:49:37.920288Z",
      "apogee_km": 540.6363051845583,
      "perigee_km": 538.8229939783705,
      "latitude_deg": -3.419670667636641e-05,
      "longitude_deg": 164.7939318594738,
      "height_km": 540.769864398866,
      "semi_major_axis_km": 6917.866649581464,
      "eccentricity": 0.00013106,
      "inclination_deg": 53.2166,
      "raan_deg": 273.4019,
      "arg_perigee_deg": 99.1706,
      "mean_anomaly_deg": 260.9434,
      "mean_motion_rev_day": 15.08844495
    },
    {
      "epoch": "2026-03-28T22:00:24.175872Z",
      "apogee_km": 540.6220718117602,
      "perigee_km": 538.8386456066855,
      "latitude_deg": 3.539731217638234e-05,
      "longitude_deg": 116.37617389484879,
      "height_km": 540.7441184653142,
      "semi_major_axis_km": 6917.867358709223,
      "eccentricity": 0.0001289,
      "inclination_deg": 53.2165,
      "raan_deg": 272.8074,
      "arg_perigee_deg": 97.6069,
      "mean_anomaly_deg": 262.507,
      "mean_motion_rev_day": 15.08844263
    },
    {
      "epoch": "2026-03-29T23:26:34.364832Z",
      "apogee_km": 540.6082208573971,
      "perigee_km": 538.8663001186069,
      "latitude_deg": -1.1252338633167561e-05,
      "longitude_deg": 89.03045955276954,
      "height_km": 540.7488595181043,
      "semi_major_axis_km": 6917.874260488002,
      "eccentricity": 0.0001259,
      "inclination_deg": 53.2165,
      "raan_deg": 268.0488,
      "arg_perigee_deg": 97.6427,
      "mean_anomaly_deg": 262.4708,
      "mean_motion_rev_day": 15.08842005
    },
    {
      "epoch": "2026-03-29T23:26:34.365696Z",
      "apogee_km": 540.6083592148816,
      "perigee_km": 538.8661617611215,
      "latitude_deg": -1.3083029083206165e-05,
      "longitude_deg": 89.03045458171565,
      "height_km": 540.7488779187487,
      "semi_major_axis_km": 6917.874260488002,
      "eccentricity": 0.00012592,
      "inclination_deg": 53.2165,
      "raan_deg": 268.0488,
      "arg_perigee_deg": 97.6427,
      "mean_anomaly_deg": 262.4708,
      "mean_motion_rev_day": 15.08842005
    }
  ]
}